{
  "type": "FeatureCollection",
  "features": [
    {
      "type": "Feature",
      "properties": { "name": "赤道一度方格", "population": 10000 },
      "geometry": { "type": "Polygon", "coordinates": [[[0, 0], [1, 0], [1, 1], [0, 1], [0, 0]]] }
    },
    {
      "type": "Feature",
      "properties": { "name": "含孔洞方格", "population": null },
      "geometry": { "type": "Polygon", "coordinates": [[[2, 0], [3, 0], [3, 1], [2, 1], [2, 0]], [[2.25, 0.25], [2.25, 0.75], [2.75, 0.75], [2.75, 0.25], [2.25, 0.25]]] }
    }
  ]
}
