{
  "type": "FeatureCollection",
  "features": [
    { "type": "Feature", "id": "inside", "properties": { "name": "重叠范围内", "value": 10 }, "geometry": { "type": "Point", "coordinates": [116.425, 39.92] } },
    { "type": "Feature", "id": "boundary", "properties": { "name": "合并范围边界", "value": 20 }, "geometry": { "type": "Point", "coordinates": [116.41, 39.92] } },
    { "type": "Feature", "id": "outside", "properties": { "name": "范围外", "value": null }, "geometry": { "type": "Point", "coordinates": [116.46, 39.92] } }
  ]
}
